NORAD_CAT_ID,OBJECT_NAME,OBJECT_TYPE,EPOCH,MEAN_MOTION,ECCENTRICITY,INCLINATION,RA_OF_ASC_NODE,ARG_OF_PERICENTER,MEAN_ANOMALY,BSTAR,MEAN_MOTION_DOT,MEAN_MOTION_DDOT,TLE_LINE0,TLE_LINE1,TLE_LINE2,SEMIMAJOR_AXIS,PERIOD,APOGEE,PERIGEE,DECAYED
53729.0,STARLINK-4651,PAYLOAD,2024-07-15 21:49:31,15.0883615,0.0001407,53.219,75.7343,107.4148,252.6998,1.5707e-05,-3.8e-07,0.0,0 STARLINK-4651,1 53729U 22107AF  24197.90939332 -.00000038  00000-0  15707-4 0  9995,2 53729  53.2190  75.7343 0001407 107.4148 252.6998 15.08836150103736,6917.892,95.438,540.731,538.784,0.0
53729.0,STARLINK-4651,PAYLOAD,2024-07-15 23:24:54,15.08839697,0.0001527,53.2177,75.4345,90.8859,269.2308,1.8837e-05,1.2e-07,0.0,0 STARLINK-4651,1 53729U 22107AF  24197.97563192  .00000012  00000-0  18837-4 0  9997,2 53729  53.2177  75.4345 0001527  90.8859 269.2308 15.08839697103117,6917.881,95.438,540.803,538.69,0.0
53729.0,STARLINK-4651,PAYLOAD,2024-07-16 21:40:17,15.08849513,0.0001285,53.2175,71.2697,71.1149,288.9982,2.8611e-05,1.68e-06,0.0,0 STARLINK-4651,1 53729U 22107AF  24198.90298506  .00000168  00000-0  28611-4 0  9998,2 53729  53.2175  71.2697 0001285  71.1149 288.9982 15.08849513103253,6917.851,95.437,540.605,538.827,0.0
53729.0,STARLINK-4651,PAYLOAD,2024-07-17 08:48:00,15.08841369,0.0001327,53.2178,69.1919,81.2348,278.8794,5.2103e-05,5.41e-06,0.0,0 STARLINK-4651,1 53729U 22107AF  24199.36666817  .00000541  00000-0  52103-4 0  9991,2 53729  53.2178  69.1919 0001327  81.2348 278.8794 15.08841369103327,6917.876,95.437,540.659,538.823,0.0
53729.0,STARLINK-4651,PAYLOAD,2024-07-17 21:31:05,15.08838153,0.000134,53.2172,66.8076,92.7967,267.3178,-2.652e-05,-7.1e-06,0.0,0 STARLINK-4651,1 53729U 22107AF  24199.89659473 -.00000710  00000-0 -26520-4 0  9993,2 53729  53.2172  66.8076 0001340  92.7967 267.3178 15.08838153103403,6917.886,95.438,540.678,538.824,0.0
53729.0,STARLINK-4651,PAYLOAD,2024-07-18 08:38:47,15.08839121,0.0001458,53.2189,64.721,103.592,256.5234,-1.9373e-05,-5.96e-06,0.0,0 STARLINK-4651,1 53729U 22107AF  24200.36027342 -.00000596  00000-0 -19373-4 0  9992,2 53729  53.2189  64.7210 0001458 103.5920 256.5234 15.08839121104105,6917.883,95.438,540.757,538.739,0.0
53729.0,STARLINK-4651,PAYLOAD,2024-07-18 21:21:52,15.08848234,0.0001467,53.2194,62.3428,113.4505,246.6641,-4.3561e-05,-9.81e-06,0.0,0 STARLINK-4651,1 53729U 22107AF  24200.89018908 -.00000981  00000-0 -43561-4 0  9992,2 53729  53.2194  62.3428 0001467 113.4505 246.6641 15.08848234103550,6917.855,95.437,540.735,538.705,0.0
53729.0,STARLINK-4651,PAYLOAD,2024-07-19 00:32:38,15.08848931,0.0001479,53.2194,61.7469,97.4467,262.6693,-8.7739e-06,-4.28e-06,0.0,0 STARLINK-4651,1 53729U 22107AF  24201.02266758 -.00000428  00000-0 -87739-5 0  9998,2 53729  53.2194  61.7469 0001479  97.4467 262.6693 15.08848931104201,6917.853,95.437,540.741,538.695,0.0
53729.0,STARLINK-4651,PAYLOAD,2024-07-19 21:12:39,15.0884053,0.00014,53.2185,57.8809,107.6042,252.5103,8.4603e-05,1.059e-05,0.0,0 STARLINK-4651,1 53729U 22107AF  24201.88379136  .00001059  00000-0  84603-4 0  9992,2 53729  53.2185  57.8809 0001400 107.6042 252.5103 15.08840530103707,6917.879,95.438,540.712,538.775,0.0
53729.0,STARLINK-4651,PAYLOAD,2024-07-20 00:23:25,15.08840519,0.0001342,53.2189,57.2874,114.3089,245.8043,6.6115e-05,7.64e-06,0.0,0 STARLINK-4651,1 53729U 22107AF  24202.01627165  .00000764  00000-0  66115-4 0  9996,2 53729  53.2189  57.2874 0001342 114.3089 245.8043 15.08840519104355,6917.879,95.438,540.672,538.815,0.0
53729.0,STARLINK-4651,PAYLOAD,2024-07-20 21:03:26,15.08859574,0.0001383,53.2172,53.4238,82.0267,278.0883,-0.00029054,-4.911e-05,0.0,0 STARLINK-4651,1 53729U 22107AF  24202.87738962 -.00004911  00000-0 -29054-3 0  9998,2 53729  53.2172  53.4238 0001383  82.0267 278.0883 15.08859574104488,6917.821,95.436,540.642,538.729,0.0
53729.0,STARLINK-4651,PAYLOAD,2024-07-21 06:35:45,15.08844091,0.0001118,53.2172,51.646,97.9415,262.1704,-4.8674e-06,-3.65e-06,0.0,0 STARLINK-4651,1 53729U 22107AF  24203.27483560 -.00000365  00000-0 -48674-5 0  9994,2 53729  53.2172  51.6460 0001118  97.9415 262.1704 15.08844091103912,6917.868,95.437,540.506,538.959,0.0
53729.0,STARLINK-4651,PAYLOAD,2024-07-21 19:18:51,15.0883843,0.0001362,53.2178,49.2713,118.8748,241.2381,-2.5904e-05,-7e-06,0.0,0 STARLINK-4651,1 53729U 22107AF  24203.80476278 -.00000700  00000-0 -25904-4 0  9994,2 53729  53.2178  49.2713 0001362 118.8748 241.2381 15.08838430103992,6917.885,95.438,540.692,538.808,0.0
53729.0,STARLINK-4651,PAYLOAD,2024-07-22 22:20:24,15.08843831,0.0001302,53.2183,44.2127,108.0928,252.0206,9.2546e-05,1.185e-05,0.0,0 STARLINK-4651,1 53729U 22107AF  24204.93083827  .00001185  00000-0  92546-4 0  9995,2 53729  53.2183  44.2127 0001302 108.0928 252.0206 15.08843831104793,6917.869,95.437,540.634,538.833,0.0
53729.0,STARLINK-4651,PAYLOAD,2024-07-23 06:17:20,15.08840977,0.0001211,53.2184,42.7234,85.492,274.621,3.2637e-05,2.32e-06,0.0,0 STARLINK-4651,1 53729U 22107AF  24205.26204219  .00000232  00000-0  32637-4 0  9999,2 53729  53.2184  42.7234 0001211  85.4920 274.6210 15.08840977104844,6917.877,95.437,540.58,538.905,0.0
53729.0,STARLINK-4651,PAYLOAD,2024-07-23 22:11:11,15.08842346,0.0001113,53.2172,39.7473,82.1495,277.9624,4.6522e-05,4.53e-06,0.0,0 STARLINK-4651,1 53729U 22107AF  24205.92444179  .00000453  00000-0  46522-4 0  9996,2 53729  53.2172  39.7473 0001113  82.1495 277.9624 15.08842346104942,6917.873,95.437,540.508,538.968,0.0
53729.0,STARLINK-4651,PAYLOAD,2024-07-25 12:20:28,15.08831593,0.0001327,53.2186,32.6138,88.6543,271.4601,-2.3846e-05,-6.67e-06,0.0,0 STARLINK-4651,1 53729U 22107AF  24207.51421498 -.00000667  00000-0 -23846-4 0  9995,2 53729  53.2186  32.6138 0001327  88.6543 271.4601 15.08831593104552,6917.906,95.438,540.689,538.853,0.0
53729.0,STARLINK-4651,PAYLOAD,2024-07-26 05:49:43,15.08831395,0.0001329,53.2185,29.3429,87.1254,272.9891,-1.3625e-05,-5.05e-06,0.0,0 STARLINK-4651,1 53729U 22107AF  24208.24285984 -.00000505  00000-0 -13625-4 0  9999,2 53729  53.2185  29.3429 0001329  87.1254 272.9891 15.08831395105291,6917.907,95.438,540.691,538.852,0.0
53729.0,STARLINK-4651,PAYLOAD,2024-07-26 18:32:47,15.08842702,1.61e-05,53.2173,26.9645,63.7853,296.3155,8.2195e-05,1.021e-05,0.0,0 STARLINK-4651,1 53729U 22107AF  24208.77276633  .00001021  00000-0  82195-4 0  9998,2 53729  53.2173  26.9645 0000161  63.7853 296.3155 15.08842702104745,6917.872,95.437,539.849,539.626,0.0
53729.0,STARLINK-4651,PAYLOAD,2024-07-26 23:18:55,15.08852544,6.29e-05,53.2163,26.0696,69.4035,290.7025,0.00026579,3.946e-05,0.0,0 STARLINK-4651,1 53729U 22107AF  24208.97147647  .00003946  00000-0  26579-3 0  9993,2 53729  53.2163  26.0696 0000629  69.4035 290.7025 15.08852544104777,6917.842,95.437,540.142,539.272,0.0
53729.0,STARLINK-4651,PAYLOAD,2024-07-27 12:02:02,15.08831976,0.0001436,53.2144,23.6891,96.7779,263.3376,0.00013723,1.896e-05,0.0,0 STARLINK-4651,1 53729U 22107AF  24209.50141262  .00001896  00000-0  13723-3 0  9999,2 53729  53.2144  23.6891 0001436  96.7779 263.3376 15.08831976104851,6917.905,95.438,540.763,538.777,0.0
53729.0,STARLINK-4651,PAYLOAD,2024-07-27 18:23:34,15.08838771,0.0002544,53.2123,22.5019,95.8473,264.2809,0.00017974,2.573e-05,0.0,0 STARLINK-4651,1 53729U 22107AF  24209.76636749  .00002573  00000-0  17974-3 0  9991,2 53729  53.2123  22.5019 0002544  95.8473 264.2809 15.08838771105526,6917.884,95.438,541.509,537.989,0.0
53729.0,STARLINK-4651,PAYLOAD,2024-07-28 19:49:43,15.08849961,0.0001966,53.2177,17.7401,104.3663,255.7548,5.7558e-05,6.28e-06,0.0,0 STARLINK-4651,1 53729U 22107AF  24210.82620024  .00000628  00000-0  57558-4 0  9991,2 53729  53.2177  17.7401 0001966 104.3663 255.7548 15.08849961105056,6917.85,95.437,541.075,538.355,0.0
53729.0,STARLINK-4651,PAYLOAD,2024-07-29 03:46:39,15.08856136,0.0001355,53.219,16.257,95.8538,264.2608,-0.0001231,-2.247e-05,0.0,0 STARLINK-4651,1 53729U 22107AF  24211.15739982 -.00002247  00000-0 -12310-3 0  9999,2 53729  53.2190  16.2570 0001355  95.8538 264.2608 15.08856136105738,6917.831,95.437,540.633,538.759,0.0
53729.0,STARLINK-4651,PAYLOAD,2024-07-29 19:40:31,15.08840102,0.0001973,53.2175,13.2837,81.0654,279.0561,-2.8006e-05,-7.34e-06,0.0,0 STARLINK-4651,1 53729U 22107AF  24211.81980912 -.00000734  00000-0 -28006-4 0  9992,2 53729  53.2175  13.2837 0001973  81.0654 279.0561 15.08840102105206,6917.88,95.438,541.11,538.38,0.0
53729.0,STARLINK-4651,PAYLOAD,2024-07-30 09:59:00,15.08830841,0.0001606,53.2179,10.6069,88.5697,271.5479,8.5702e-06,-1.52e-06,0.0,0 STARLINK-4651,1 53729U 22107AF  24212.41597373 -.00000152  00000-0  85702-5 0  9994,2 53729  53.2179  10.6069 0001606  88.5697 271.5479 15.08830841105293,6917.908,95.438,540.884,538.662,0.0
53729.0,STARLINK-4651,PAYLOAD,2024-07-30 21:06:41,15.08844144,0.0001963,53.2185,8.5242,81.3917,278.7297,5.461e-06,-2.01e-06,0.0,0 STARLINK-4651,1 53729U 22107AF  24212.87964747 -.00000201  00000-0  54610-5 0  9996,2 53729  53.2185   8.5242 0001963  81.3917 278.7297 15.08844144105367,6917.868,95.437,541.091,538.375,0.0
53729.0,STARLINK-4651,PAYLOAD,2024-07-31 03:28:14,15.08835439,0.0001484,53.2198,7.3321,96.3259,263.7902,-3.2734e-05,-8.09e-06,0.0,0 STARLINK-4651,1 53729U 22107AF  24213.14461300 -.00000809  00000-0 -32734-4 0  9991,2 53729  53.2198   7.3321 0001484  96.3259 263.7902 15.08835439105408,6917.894,95.438,540.786,538.733,0.0
53729.0,STARLINK-4651,PAYLOAD,2024-07-31 14:35:56,15.08830107,0.0001682,53.2182,5.2513,78.4888,281.6293,1.1443e-05,-1.06e-06,0.0,0 STARLINK-4651,1 53729U 22107AF  24213.60829692 -.00000106  00000-0  11443-4 0  9997,2 53729  53.2182   5.2513 0001682  78.4888 281.6293 15.08830107106107,6917.911,95.438,540.939,538.612,0.0
53729.0,STARLINK-4651,PAYLOAD,2024-07-31 19:22:05,15.08840099,0.00013,53.2196,4.3607,81.5222,278.5918,8.4557e-05,1.058e-05,0.0,0 STARLINK-4651,1 53729U 22107AF  24213.80700910  .00001058  00000-0  84557-4 0  9992,2 53729  53.2196   4.3607 0001300  81.5222 278.5918 15.08840099106133,6917.88,95.438,540.644,538.846,0.0
